HIERARCHY
ROOT __0
{
	OFFSET 0.0 0.0 0.0
	CHANNELS 0
	JOINT NECK
	{
		OFFSET -0.142333 -0.858793 0.046110
		CHANNELS 6 Xposition Yposition Zposition Xrotation Yrotation Zrotation
		End Site
		{
			OFFSET -0.043240 -0.611897 -0.029555
		}
	}
	JOINT HEAD
	{
		OFFSET -0.185573 -1.470690 0.016555
		CHANNELS 6 Xposition Yposition Zposition Xrotation Yrotation Zrotation
		End Site
		{
			OFFSET -0.211205 -0.143744 -0.023529
		}
	}
	JOINT LEFT_SHOULDER
	{
		OFFSET -0.185573 -1.470690 0.016555
		CHANNELS 6 Xposition Yposition Zposition Xrotation Yrotation Zrotation
		End Site
		{
			OFFSET 0.026486 0.026797 -0.184806
		}
	}
	JOINT RIGHT_SHOULDER
	{
		OFFSET -0.185573 -1.470690 0.016555
		CHANNELS 6 Xposition Yposition Zposition Xrotation Yrotation Zrotation
		End Site
		{
			OFFSET -0.006007 -0.002777 0.185319
		}
	}
	JOINT LEFT_ELBOW
	{
		OFFSET -0.159087 -1.443892 -0.168251
		CHANNELS 6 Xposition Yposition Zposition Xrotation Yrotation Zrotation
		End Site
		{
			OFFSET 0.053469 0.323687 -0.006412
		}
	}
	JOINT RIGHT_ELBOW
	{
		OFFSET -0.191580 -1.473467 0.201874
		CHANNELS 6 Xposition Yposition Zposition Xrotation Yrotation Zrotation
		End Site
		{
			OFFSET 0.055002 0.276033 0.069745
		}
	}
	JOINT LEFT_WRIST
	{
		OFFSET -0.105618 -1.120205 -0.174663
		CHANNELS 6 Xposition Yposition Zposition Xrotation Yrotation Zrotation
		End Site
		{
			OFFSET -0.057172 0.257952 0.038296
		}
	}
	JOINT RIGHT_WRIST
	{
		OFFSET -0.136579 -1.197434 0.271619
		CHANNELS 6 Xposition Yposition Zposition Xrotation Yrotation Zrotation
		End Site
		{
			OFFSET -0.061811 0.251207 0.025460
		}
	}
	JOINT LEFT_HIP
	{
		OFFSET -0.142333 -0.858793 0.046110
		CHANNELS 6 Xposition Yposition Zposition Xrotation Yrotation Zrotation
		End Site
		{
			OFFSET 0.028116 0.026698 -0.087269
		}
	}
	JOINT RIGHT_HIP
	{
		OFFSET -0.142333 -0.858793 0.046110
		CHANNELS 6 Xposition Yposition Zposition Xrotation Yrotation Zrotation
		End Site
		{
			OFFSET -0.027962 -0.030508 0.085482
		}
	}
	JOINT LEFT_KNEE
	{
		OFFSET -0.114216 -0.832095 -0.041160
		CHANNELS 6 Xposition Yposition Zposition Xrotation Yrotation Zrotation
		End Site
		{
			OFFSET -0.017152 0.384999 0.000505
		}
	}
	JOINT RIGHT_KNEE
	{
		OFFSET -0.170295 -0.889301 0.131592
		CHANNELS 6 Xposition Yposition Zposition Xrotation Yrotation Zrotation
		End Site
		{
			OFFSET -0.009631 0.410618 0.004119
		}
	}
	JOINT LEFT_ANKLE
	{
		OFFSET -0.131368 -0.447096 -0.040655
		CHANNELS 6 Xposition Yposition Zposition Xrotation Yrotation Zrotation
		End Site
		{
			OFFSET -0.029174 0.025003 0.108489
		}
	}
	JOINT RIGHT_ANKLE
	{
		OFFSET -0.179926 -0.478683 0.135710
		CHANNELS 6 Xposition Yposition Zposition Xrotation Yrotation Zrotation
		End Site
		{
			OFFSET 0.061613 0.071639 0.157078
		}
	}
}
MOTION
Frames: 10
Frame Time: 0.033333
-0.142333 -0.858793 0.046110 -0.000000 0.000001 0.000000 -0.185573 -1.470690 0.016555 -0.000000 0.000001 0.000001 -0.185573 -1.470690 0.016555 -0.000000 0.000000 -0.000000 -0.185573 -1.470690 0.016555 -0.000000 -0.000000 0.000000 -0.159087 -1.443892 -0.168251 -0.000000 0.000000 0.000000 -0.191580 -1.473467 0.201874 0.000000 -0.000000 -0.000001 -0.105618 -1.120205 -0.174663 -0.000000 0.000000 0.000000 -0.136579 -1.197433 0.271619 0.000000 0.000000 -0.000001 -0.142333 -0.858793 0.046110 -0.000002 0.000000 0.000002 -0.142333 -0.858793 0.046110 -0.000001 0.000001 -0.000001 -0.114216 -0.832095 -0.041160 -0.000000 -0.000000 0.000000 -0.170295 -0.889301 0.131592 0.000000 0.000000 -0.000000 -0.131368 -0.447096 -0.040655 0.000000 0.000001 0.000000 -0.179926 -0.478683 0.135710 -0.000002 -0.000000 0.000001 
-0.142333 -0.858793 0.046110 -0.982665 -0.128581 2.538034 -0.185573 -1.470690 0.016555 -0.551600 0.135080 5.474721 -0.185573 -1.470690 0.016555 -4.089855 -1.247324 3.260839 -0.185573 -1.470690 0.016555 -1.922892 0.203195 -4.383992 -0.159087 -1.443892 -0.168251 0.792971 -0.046804 4.654851 -0.191580 -1.473467 0.201874 -4.736153 -0.253573 3.895831 -0.105618 -1.120205 -0.174663 -4.363816 -2.380261 0.728903 -0.136579 -1.197433 0.271619 -4.916211 -1.906925 -2.652636 -0.142333 -0.858793 0.046110 -2.788150 1.534712 -3.276754 -0.142333 -0.858793 0.046110 -1.832930 -1.589400 1.516212 -0.114216 -0.832096 -0.041160 -0.337110 -0.037552 1.331320 -0.170295 -0.889301 0.131592 -1.929876 0.015186 -2.865242 -0.131368 -0.447096 -0.040655 0.877667 4.663616 10.426524 -0.179926 -0.478683 0.135710 3.695541 -2.299105 -3.665187 
-0.142333 -0.858793 0.046110 -2.927108 0.036187 3.097090 -0.185573 -1.470690 0.016555 -1.130718 -0.176048 9.981154 -0.185573 -1.470690 0.016555 -4.264242 -1.065380 2.673717 -0.185573 -1.470690 0.016555 -1.787516 0.191454 -4.237598 -0.159087 -1.443892 -0.168251 -0.224033 0.392136 8.384226 -0.191580 -1.473467 0.201874 -6.703846 -1.843813 7.737325 -0.105618 -1.120205 -0.174663 -3.529512 -3.263004 4.246574 -0.136579 -1.197434 0.271619 -5.653162 -2.220673 -2.877129 -0.142333 -0.858793 0.046110 -2.813998 0.039783 -0.933719 -0.142333 -0.858793 0.046110 -0.756664 0.078364 -0.351441 -0.114216 -0.832095 -0.041160 0.014485 0.003679 -0.954491 -0.170295 -0.889301 0.131592 -1.195229 0.061194 -3.846661 -0.131368 -0.447096 -0.040655 3.933295 3.280800 7.666501 -0.179926 -0.478683 0.135710 6.366648 -1.337938 -3.619432 
-0.142333 -0.858793 0.046110 -2.817172 -0.079040 3.939497 -0.185573 -1.470689 0.016555 -1.026167 1.316450 13.011507 -0.185573 -1.470690 0.016555 -4.479607 -1.412843 3.669523 -0.185573 -1.470690 0.016555 -1.060556 0.226450 -5.796176 -0.159087 -1.443892 -0.168251 -1.557589 0.757161 9.147403 -0.191580 -1.473467 0.201874 -6.574102 -2.865707 9.321998 -0.105618 -1.120205 -0.174663 -5.020379 -4.981102 6.542807 -0.136579 -1.197434 0.271619 -5.944505 -2.274635 -3.213701 -0.142333 -0.858793 0.046110 -4.083223 0.546712 -2.079812 -0.142333 -0.858793 0.046110 -3.015683 -0.528609 -0.265126 -0.114216 -0.832096 -0.041160 -2.023620 -0.222323 2.034325 -0.170295 -0.889301 0.131592 -1.879470 0.082467 -4.680640 -0.131368 -0.447096 -0.040655 -0.151353 6.539387 14.632241 -0.179926 -0.478683 0.135710 6.217272 -3.944700 -6.053773 
-0.142333 -0.858793 0.046110 -2.891473 -0.090501 4.098656 -0.185573 -1.470690 0.016555 -1.016084 1.272108 12.816908 -0.185573 -1.470690 0.016555 -4.186033 -0.713157 1.625394 -0.185573 -1.470690 0.016555 0.784430 0.119807 -5.150581 -0.159087 -1.443892 -0.168251 -9.379957 2.686722 10.084154 -0.191580 -1.473467 0.201874 5.855819 -6.707588 8.827949 -0.105618 -1.120205 -0.174663 -15.753871 -13.042735 9.641839 -0.136579 -1.197434 0.271619 9.276630 4.737790 0.863708 -0.142333 -0.858793 0.046110 -2.702344 1.926812 -3.875530 -0.142333 -0.858793 0.046110 -3.776043 -2.118354 1.523947 -0.114216 -0.832096 -0.041160 -2.026094 -0.242215 2.989671 -0.170295 -0.889301 0.131592 -1.508748 0.037615 -3.262607 -0.131368 -0.447096 -0.040655 -2.763305 5.821979 13.106330 -0.179926 -0.478683 0.135710 0.282428 -4.288648 -4.602746 
-0.142333 -0.858793 0.046110 -4.344890 -0.096888 5.290831 -0.185573 -1.470690 0.016555 -0.443577 2.564611 11.154827 -0.185573 -1.470690 0.016555 -10.945980 -1.370297 2.265705 -0.185573 -1.470690 0.016555 5.602679 -0.091673 -5.119890 -0.159087 -1.443892 -0.168251 -35.903965 7.068680 17.750144 -0.191580 -1.473467 0.201874 45.210689 -17.902185 13.839033 -0.105618 -1.120205 -0.174663 -17.088877 -35.586221 41.138164 -0.136579 -1.197433 0.271619 46.991203 25.653275 6.464590 -0.142333 -0.858793 0.046110 -1.034527 5.084587 -8.666224 -0.142333 -0.858793 0.046110 -8.848252 -6.113188 4.469308 -0.114216 -0.832096 -0.041160 -0.128166 -0.012447 0.267442 -0.170295 -0.889301 0.131592 -0.174221 0.095698 -4.816140 -0.131368 -0.447096 -0.040655 -21.081171 5.273727 11.962132 -0.179926 -0.478683 0.135710 -10.260759 -5.618228 -2.590384 
-0.142333 -0.858793 0.046110 -4.418806 -0.169897 5.881464 -0.185573 -1.470690 0.016555 -0.168746 3.354533 10.840233 -0.185573 -1.470690 0.016555 -15.147780 -2.203857 3.503214 -0.185573 -1.470690 0.016555 8.677814 -0.132287 -3.070204 -0.159087 -1.443892 -0.168251 -43.355439 5.627539 25.678668 -0.191580 -1.473467 0.201874 62.227231 -20.959764 18.973309 -0.105618 -1.120205 -0.174663 -18.849623 -47.830923 52.081446 -0.136579 -1.197434 0.271619 61.807372 33.322997 4.536730 -0.142333 -0.858793 0.046110 0.475978 6.571865 -10.982199 -0.142333 -0.858793 0.046110 -9.863448 -7.871639 6.047120 -0.114216 -0.832096 -0.041160 0.844759 0.069246 -1.286318 -0.170295 -0.889301 0.131592 -0.331464 0.116486 -5.756334 -0.131368 -0.447096 -0.040655 -26.423606 5.212776 11.746860 -0.179926 -0.478683 0.135710 -14.187182 -6.112256 -1.778619 
-0.142333 -0.858793 0.046110 -4.823464 -0.263263 6.816702 -0.185573 -1.470690 0.016555 0.952411 5.371578 7.483090 -0.185573 -1.470690 0.016555 -11.108885 -1.804248 3.323630 -0.185573 -1.470690 0.016555 9.526149 -0.306307 -5.921824 -0.159087 -1.443892 -0.168251 -80.578897 7.792611 29.374219 -0.191580 -1.473467 0.201874 77.592643 -22.679616 22.647673 -0.105618 -1.120205 -0.174663 -89.670323 -68.983128 -0.405731 -0.136579 -1.197434 0.271619 80.870068 43.228759 2.522127 -0.142333 -0.858793 0.046110 6.256424 4.383504 -6.081730 -0.142333 -0.858793 0.046110 -15.640882 -5.551671 1.423081 -0.114216 -0.832096 -0.041160 0.542945 0.043076 -2.517462 -0.170295 -0.889301 0.131592 0.261154 0.122571 -6.210863 -0.131368 -0.447096 -0.040655 -29.308557 4.338917 6.494076 -0.179926 -0.478683 0.135710 -15.394277 -4.958629 0.307612 
-0.142333 -0.858793 0.046110 -6.736231 -0.155343 7.137193 -0.185573 -1.470690 0.016555 -0.509805 1.806949 9.864327 -0.185573 -1.470690 0.016555 -12.159814 -0.182045 -0.834646 -0.185573 -1.470690 0.016555 9.270804 -0.291398 -5.884389 -0.159087 -1.443892 -0.168251 -79.831456 -10.830661 53.186017 -0.191580 -1.473467 0.201874 91.553010 -16.565821 46.464643 -0.105618 -1.120205 -0.174663 -144.099629 -229.700327 -64.588960 -0.136579 -1.197434 0.271619 21.685717 -12.286961 137.234428 -0.142333 -0.858793 0.046110 9.433286 6.187462 -9.068078 -0.142333 -0.858793 0.046110 -16.991824 -7.750626 3.172986 -0.114216 -0.832096 -0.041160 0.482598 0.037502 -3.461883 -0.170295 -0.889301 0.131592 -0.238682 0.127377 -6.262845 -0.131368 -0.447096 -0.040655 -20.267871 5.672903 13.565230 -0.179926 -0.478683 0.135710 -4.364805 -5.262441 -4.187683 
-0.142333 -0.858793 0.046110 -7.251722 -0.069287 6.858292 -0.185573 -1.470690 0.016555 -1.149239 0.160039 11.128139 -0.185573 -1.470690 0.016555 -10.228628 1.292109 -4.441847 -0.185573 -1.470690 0.016555 9.151672 -0.273995 -5.657173 -0.159087 -1.443892 -0.168251 -77.488189 -16.791916 61.708375 -0.191580 -1.473467 0.201874 92.346999 -12.951572 56.324349 -0.105618 -1.120205 -0.174663 -56.548140 -228.214406 -191.328147 -0.136579 -1.197434 0.271619 35.479424 -98.964359 139.951123 -0.142333 -0.858793 0.046110 8.687685 6.955918 -10.756145 -0.142333 -0.858793 0.046110 -17.088083 -9.166476 4.538221 -0.114216 -0.832096 -0.041160 0.342682 0.029006 -4.126665 -0.170295 -0.889301 0.131592 -0.713904 0.137841 -6.520634 -0.131368 -0.447096 -0.040655 -18.334550 5.909572 14.322643 -0.179926 -0.478683 0.135710 -0.075178 -7.697972 -8.177780 
